NORAD_CAT_ID,OBJECT_NAME,OBJECT_TYPE,EPOCH,MEAN_MOTION,ECCENTRICITY,INCLINATION,RA_OF_ASC_NODE,ARG_OF_PERICENTER,MEAN_ANOMALY,BSTAR,MEAN_MOTION_DOT,MEAN_MOTION_DDOT,TLE_LINE0,TLE_LINE1,TLE_LINE2,SEMIMAJOR_AXIS,PERIOD,APOGEE,PERIGEE,DECAYED
54764.0,STARLINK-5458,PAYLOAD,2024-02-27 11:41:10,15.08837882,0.000149,53.2159,131.4394,89.3568,270.7595,-2.401e-05,-6.7e-06,0.0,0 STARLINK-5458,1 54764U 22175G   24058.48693251 -.00000670  00000-0 -24010-4 0  9996,2 54764  53.2159 131.4394 0001490  89.3568 270.7595 15.08837882 65861,6917.887,95.438,540.783,538.721,0.0
54764.0,STARLINK-5458,PAYLOAD,2024-02-27 21:13:29,15.08838213,0.000151,53.2162,129.6559,89.4088,270.7077,-2.9833e-05,-7.63e-06,0.0,0 STARLINK-5458,1 54764U 22175G   24058.88437312 -.00000763  00000-0 -29833-4 0  9995,2 54764  53.2162 129.6559 0001510  89.4088 270.7077 15.08838213 68089,6917.886,95.438,540.795,538.706,0.0
54764.0,STARLINK-5458,PAYLOAD,2024-02-28 11:31:58,15.08846171,0.0001526,53.2156,126.9792,83.0467,277.0699,0.00030814,4.62e-05,0.0,0 STARLINK-5458,1 54764U 22175G   24059.48053287  .00004620  00000-0  30814-3 0  9991,2 54764  53.2156 126.9792 0001526  83.0467 277.0699 15.08846171 68171,6917.862,95.437,540.782,538.671,0.0
54764.0,STARLINK-5458,PAYLOAD,2024-02-28 21:04:16,15.08840987,0.0001341,53.215,125.1941,79.3162,280.7981,0.00026847,3.987e-05,0.0,0 STARLINK-5458,1 54764U 22175G   24059.87797388  .00003987  00000-0  26847-3 0  9997,2 54764  53.2150 125.1941 0001341  79.3162 280.7981 15.08840987 68238,6917.877,95.437,540.67,538.815,0.0
54764.0,STARLINK-5458,PAYLOAD,2024-02-29 05:01:12,15.08838721,0.0001594,53.2159,123.7111,101.5179,258.5992,0.00013887,1.923e-05,0.0,0 STARLINK-5458,1 54764U 22175G   24060.20917638  .00001923  00000-0  13887-3 0  9996,2 54764  53.2159 123.7111 0001594 101.5179 258.5992 15.08838721 66120,6917.884,95.438,540.852,538.647,0.0
54764.0,STARLINK-5458,PAYLOAD,2024-02-29 11:22:45,15.08841322,0.0001568,53.2162,122.5191,93.6659,266.4512,0.00016263,2.301e-05,0.0,0 STARLINK-5458,1 54764U 22175G   24060.47413566  .00002301  00000-0  16263-3 0  9998,2 54764  53.2162 122.5191 0001568  93.6659 266.4512 15.08841322 68325,6917.876,95.437,540.826,538.657,0.0
54764.0,STARLINK-5458,PAYLOAD,2024-02-29 20:55:04,15.08839765,0.0001602,53.2167,120.7355,93.1273,266.9903,8.5893e-05,1.079e-05,0.0,0 STARLINK-5458,1 54764U 22175G   24060.87157639  .00001079  00000-0  85893-4 0  9995,2 54764  53.2167 120.7355 0001602  93.1273 266.9903 15.08839765 68381,6917.881,95.438,540.854,538.638,0.0
54764.0,STARLINK-5458,PAYLOAD,2024-03-01 12:48:55,15.08837799,0.0001484,53.2158,117.7604,84.0013,276.1148,8.7816e-06,-1.48e-06,0.0,0 STARLINK-5458,1 54764U 22175G   24061.53397925 -.00000148  00000-0  87816-5 0  9998,2 54764  53.2158 117.7604 0001484  84.0013 276.1148 15.08837799 68483,6917.887,95.438,540.779,538.726,0.0
54764.0,STARLINK-5458,PAYLOAD,2024-03-02 09:28:56,15.08848288,0.0001545,53.2156,113.8943,83.4028,276.714,0.00017254,2.46e-05,0.0,0 STARLINK-5458,1 54764U 22175G   24062.39509457  .00002460  00000-0  17254-3 0  9993,2 54764  53.2156 113.8943 0001545  83.4028 276.7140 15.08848288 66459,6917.855,95.437,540.789,538.651,0.0
54764.0,STARLINK-5458,PAYLOAD,2024-03-03 02:58:11,15.08837483,0.0001601,53.2152,110.6229,81.8417,278.2757,0.00011435,1.532e-05,0.0,0 STARLINK-5458,1 54764U 22175G   24063.12374095  .00001532  00000-0  11435-3 0  9997,2 54764  53.2152 110.6229 0001601  81.8417 278.2757 15.08837483 66562,6917.888,95.438,540.861,538.646,0.0
54764.0,STARLINK-5458,PAYLOAD,2024-03-03 09:19:43,15.08837248,0.0001633,53.2155,109.4326,81.1749,278.9428,0.00010314,1.354e-05,0.0,0 STARLINK-5458,1 54764U 22175G   24063.38870236  .00001354  00000-0  10314-3 0  9990,2 54764  53.2155 109.4326 0001633  81.1749 278.9428 15.08837248 68760,6917.889,95.438,540.883,538.624,0.0
54764.0,STARLINK-5458,PAYLOAD,2024-03-04 12:21:16,15.0885621,0.0001649,53.2154,104.376,84.4254,275.6926,0.00031106,4.668e-05,0.0,0 STARLINK-5458,1 54764U 22175G   24064.51477369  .00004668  00000-0  31106-3 0  9999,2 54764  53.2154 104.3760 0001649  84.4254 275.6926 15.08856210 66775,6917.831,95.437,540.837,538.555,0.0
54764.0,STARLINK-5458,PAYLOAD,2024-03-05 02:39:45,15.08828335,0.0001393,53.2155,101.7005,82.1176,277.9974,-5.3703e-05,-1.142e-05,0.0,0 STARLINK-5458,1 54764U 22175G   24065.11094731 -.00001142  00000-0 -53703-4 0  9998,2 54764  53.2155 101.7005 0001393  82.1176 277.9974 15.08828335 66868,6917.916,95.438,540.745,538.817,0.0
54764.0,STARLINK-5458,PAYLOAD,2024-03-05 09:01:18,15.08830029,0.0001553,53.2156,100.5108,87.622,272.495,-5.8725e-05,-1.222e-05,0.0,0 STARLINK-5458,1 54764U 22175G   24065.37590712 -.00001222  00000-0 -58725-4 0  9994,2 54764  53.2156 100.5108 0001553  87.6220 272.4950 15.08830029 69060,6917.911,95.438,540.85,538.702,0.0
54764.0,STARLINK-5458,PAYLOAD,2024-03-06 08:52:05,15.08855568,0.0001623,53.2165,96.0497,90.4539,269.6639,0.00087639,0.00013693,0.0,0 STARLINK-5458,1 54764U 22175G   24066.36950592  .00013693  00000-0  87639-3 0  9998,2 54764  53.2165  96.0497 0001623  90.4539 269.6639 15.08855568 67057,6917.833,95.437,540.821,538.575,0.0
54764.0,STARLINK-5458,PAYLOAD,2024-03-06 18:24:24,15.08849636,0.0001819,53.2172,94.2664,89.6824,270.4376,0.00039349,5.982e-05,0.0,0 STARLINK-5458,1 54764U 22175G   24066.76694506  .00005982  00000-0  39349-3 0  9999,2 54764  53.2172  94.2664 0001819  89.6824 270.4376 15.08849636 67119,6917.851,95.437,540.974,538.458,0.0
54764.0,STARLINK-5458,PAYLOAD,2024-03-07 11:53:38,15.08837209,0.0001721,53.2166,90.9982,102.455,257.6635,7.5406e-05,9.12e-06,0.0,0 STARLINK-5458,1 54764U 22175G   24067.49558934  .00000912  00000-0  75406-4 0  9997,2 54764  53.2166  90.9982 0001721 102.4550 257.6635 15.08837209 69389,6917.889,95.438,540.944,538.563,0.0
54764.0,STARLINK-5458,PAYLOAD,2024-03-08 00:36:43,15.08843604,0.0001562,53.2159,88.6176,100.0109,260.106,-1.5839e-05,-5.4e-06,0.0,0 STARLINK-5458,1 54764U 22175G   24068.02550750 -.00000540  00000-0 -15839-4 0  9998,2 54764  53.2159  88.6176 0001562 100.0109 260.1060 15.08843604 67304,6917.869,95.437,540.815,538.654,0.0
54764.0,STARLINK-5458,PAYLOAD,2024-03-08 08:33:39,15.08848793,0.0001628,53.2166,87.1318,100.1374,259.9802,5.0316e-05,5.13e-06,0.0,0 STARLINK-5458,1 54764U 22175G   24068.35670415  .00000513  00000-0  50316-4 0  9992,2 54764  53.2166  87.1318 0001628 100.1374 259.9802 15.08848793 69511,6917.854,95.437,540.845,538.592,0.0
54764.0,STARLINK-5458,PAYLOAD,2024-03-09 05:13:40,15.08837775,0.0001478,53.2157,83.2647,94.7001,265.416,0.0001214,1.645e-05,0.0,0 STARLINK-5458,1 54764U 22175G   24069.21783104  .00001645  00000-0  12140-3 0  9997,2 54764  53.2157  83.2647 0001478  94.7001 265.4160 15.08837775 67482,6917.887,95.438,540.775,538.73,0.0
54764.0,STARLINK-5458,PAYLOAD,2024-03-09 09:59:49,15.08840095,0.0001447,53.2157,82.3716,90.4053,269.7105,0.00020192,2.927e-05,0.0,0 STARLINK-5458,1 54764U 22175G   24069.41655046  .00002927  00000-0  20192-3 0  9992,2 54764  53.2157  82.3716 0001447  90.4053 269.7105 15.08840095 69673,6917.88,95.438,540.746,538.744,0.0
54764.0,STARLINK-5458,PAYLOAD,2024-03-09 17:56:45,15.08843519,0.0001439,53.2159,80.8864,89.2172,270.8985,5.1415e-05,5.3e-06,0.0,0 STARLINK-5458,1 54764U 22175G   24069.74774848  .00000530  00000-0  51415-4 0  9991,2 54764  53.2159  80.8864 0001439  89.2172 270.8985 15.08843519 69720,6917.87,95.437,540.73,538.739,0.0
54764.0,STARLINK-5458,PAYLOAD,2024-03-10 08:15:13,15.0884588,0.0001562,53.2159,78.2089,97.4889,262.628,0.00012538,1.708e-05,0.0,0 STARLINK-5458,1 54764U 22175G   24070.34390710  .00001708  00000-0  12538-3 0  9991,2 54764  53.2159  78.2089 0001562  97.4889 262.6280 15.08845880 67653,6917.862,95.437,540.808,538.647,0.0
54764.0,STARLINK-5458,PAYLOAD,2024-03-10 17:47:32,15.08843624,0.0001449,53.2161,76.4243,89.4205,270.6953,0.00012348,1.678e-05,0.0,0 STARLINK-5458,1 54764U 22175G   24070.74134766  .00001678  00000-0  12348-3 0  9997,2 54764  53.2161  76.4243 0001449  89.4205 270.6953 15.08843624 69871,6917.869,95.437,540.737,538.732,0.0
54764.0,STARLINK-5458,PAYLOAD,2024-03-11 06:30:37,15.08844946,0.0001534,53.2167,74.0454,94.1347,265.9821,9.1151e-05,1.163e-05,0.0,0 STARLINK-5458,1 54764U 22175G   24071.27126666  .00001163  00000-0  91151-4 0  9995,2 54764  53.2167  74.0454 0001534  94.1347 265.9821 15.08844946 67798,6917.865,95.437,540.791,538.669,0.0
54764.0,STARLINK-5458,PAYLOAD,2024-03-12 04:46:01,15.08836767,0.0001544,53.2165,69.8812,97.4575,262.6592,4.1567e-05,3.74e-06,0.0,0 STARLINK-5458,1 54764U 22175G   24072.19863233  .00000374  00000-0  41567-4 0  9994,2 54764  53.2165  69.8812 0001544  97.4575 262.6592 15.08836767 67933,6917.89,95.438,540.823,538.687,0.0
54764.0,STARLINK-5458,PAYLOAD,2024-03-12 09:32:11,15.08840399,0.0001539,53.2167,68.9888,99.7483,260.3683,-5.7543e-06,-3.8e-06,0.0,0 STARLINK-5458,1 54764U 22175G   24072.39735068 -.00000380  00000-0 -57543-5 0  9991,2 54764  53.2167  68.9888 0001539  99.7483 260.3683 15.08840399 70122,6917.879,95.438,540.809,538.68,0.0
54764.0,STARLINK-5458,PAYLOAD,2024-03-13 06:12:10,15.08865236,9.69e-05,53.2174,65.1233,94.0377,266.0726,-0.00017226,-3.03e-05,0.0,0 STARLINK-5458,1 54764U 22175G   24073.25845313 -.00003030  00000-0 -17226-3 0  9999,2 54764  53.2174  65.1233 0000969  94.0377 266.0726 15.08865236 68090,6917.803,95.436,540.339,538.998,0.0
54764.0,STARLINK-5458,PAYLOAD,2024-03-14 06:02:58,15.08849003,0.0001411,53.2168,60.6626,82.921,277.1943,0.00020138,2.919e-05,0.0,0 STARLINK-5458,1 54764U 22175G   24074.25206129  .00002919  00000-0  20138-3 0  9995,2 54764  53.2168  60.6626 0001411  82.9210 277.1943 15.08849003 68249,6917.853,95.437,540.694,538.742,0.0
54764.0,STARLINK-5458,PAYLOAD,2024-03-14 09:13:43,15.08858599,0.0001496,53.2175,60.0675,87.3799,272.7364,0.00022821,3.348e-05,0.0,0 STARLINK-5458,1 54764U 22175G   24074.38453359  .00003348  00000-0  22821-3 0  9996,2 54764  53.2175  60.0675 0001496  87.3799 272.7364 15.08858599 68269,6917.824,95.436,540.723,538.654,0.0
